{
  "type": "FeatureCollection",
  "features": [
    {
      "type": "Feature",
      "properties": {
        "norad_id": 33701,
        "name": "FENGYUN 1C DEB",
        "group": "fengyun-1c-debris",
        "lat": -56.92553291640103,
        "lon": 98.54009920359098,
        "alt_km": 803.4302152111268,
        "timestamp": "2025-12-03T04:52:29.924344+00:00",
        "meta_object_name": "FENGYUN 1C DEB",
        "meta_object_id": "1999-025DGN",
        "meta_epoch": "2025-11-19T19:29:54.481632",
        "meta_mean_motion": 14.02181122,
        "meta_eccentricity": 0.01331995,
        "meta_inclination": 98.6598,
        "meta_ra_of_asc_node": 279.346,
        "meta_arg_of_pericenter": 252.9525,
        "meta_mean_anomaly": 105.7013,
        "meta_ephemeris_type": 0,
        "meta_classification_type": "U",
        "meta_norad_cat_id": 33701,
        "meta_element_set_no": 999,
        "meta_rev_at_epoch": 90184,
        "meta_bstar": 0.0018411078,
        "meta_mean_motion_dot": 3.003e-05,
        "meta_mean_motion_ddot": 0,
        "tle_line1": "1 33701U 99025DGN 25323.81243613  .00003003  00000+0  18411-2 0  9994",
        "tle_line2": "2 33701  98.6598 279.3460 0133199 252.9525 105.7013 14.02181122901849"
      },
      "geometry": {
        "type": "Point",
        "coordinates": [
          98.54009920359098,
          -56.92553291640103
        ]
      }
    },
    {
      "type": "Feature",
      "properties": {
        "norad_id": 33710,
        "name": "FENGYUN 1C DEB",
        "group": "fengyun-1c-debris",
        "lat": -42.523472677893004,
        "lon": 84.37896989457559,
        "alt_km": 893.0315040457108,
        "timestamp": "2025-12-03T04:52:29.924354+00:00",
        "meta_object_name": "FENGYUN 1C DEB",
        "meta_object_id": "1999-025DGX",
        "meta_epoch": "2025-12-02T05:15:53.096256",
        "meta_mean_motion": 14.11571356,
        "meta_eccentricity": 0.0056132,
        "meta_inclination": 98.9804,
        "meta_ra_of_asc_node": 75.0562,
        "meta_arg_of_pericenter": 176.3436,
        "meta_mean_anomaly": 183.8157,
        "meta_ephemeris_type": 0,
        "meta_classification_type": "U",
        "meta_norad_cat_id": 33710,
        "meta_element_set_no": 999,
        "meta_rev_at_epoch": 67508,
        "meta_bstar": 0.0015671,
        "meta_mean_motion_dot": 2.844e-05,
        "meta_mean_motion_ddot": 0,
        "tle_line1": "1 33710U 99025DGX 25336.21936454  .00002844  00000+0  15671-2 0  9991",
        "tle_line2": "2 33710  98.9804  75.0562 0056132 176.3436 183.8157 14.11571356675089"
      },
      "geometry": {
        "type": "Point",
        "coordinates": [
          84.37896989457559,
          -42.523472677893004
        ]
      }
    },
    {
      "type": "Feature",
      "properties": {
        "norad_id": 33711,
        "name": "FENGYUN 1C DEB",
        "group": "fengyun-1c-debris",
        "lat": 66.80063143556424,
        "lon": -127.1960003681327,
        "alt_km": 827.2438597106166,
        "timestamp": "2025-12-03T04:52:29.924364+00:00",
        "meta_object_name": "FENGYUN 1C DEB",
        "meta_object_id": "1999-025DGY",
        "meta_epoch": "2025-12-02T02:54:16.129728",
        "meta_mean_motion": 14.00890357,
        "meta_eccentricity": 0.00975372,
        "meta_inclination": 99.1842,
        "meta_ra_of_asc_node": 29.5387,
        "meta_arg_of_pericenter": 77.3629,
        "meta_mean_anomaly": 339.0247,
        "meta_ephemeris_type": 0,
        "meta_classification_type": "U",
        "meta_norad_cat_id": 33711,
        "meta_element_set_no": 999,
        "meta_rev_at_epoch": 91783,
        "meta_bstar": 0.00063620782,
        "meta_mean_motion_dot": 9.47e-06,
        "meta_mean_motion_ddot": 0,
        "tle_line1": "1 33711U 99025DGY 25336.12102002  .00000947  00000+0  63621-3 0  9997",
        "tle_line2": "2 33711  99.1842  29.5387 0097537  77.3629 339.0247 14.00890357917832"
      },
      "geometry": {
        "type": "Point",
        "coordinates": [
          -127.1960003681327,
          66.80063143556424
        ]
      }
    },
    {
      "type": "Feature",
      "properties": {
        "norad_id": 33716,
        "name": "FENGYUN 1C DEB",
        "group": "fengyun-1c-debris",
        "lat": 41.75019336520518,
        "lon": -105.45599420918825,
        "alt_km": 714.837051784164,
        "timestamp": "2025-12-03T04:52:29.924374+00:00",
        "meta_object_name": "FENGYUN 1C DEB",
        "meta_object_id": "1999-025DHD",
        "meta_epoch": "2025-12-01T12:27:13.598496",
        "meta_mean_motion": 14.32648597,
        "meta_eccentricity": 0.00941626,
        "meta_inclination": 98.8725,
        "meta_ra_of_asc_node": 260.8346,
        "meta_arg_of_pericenter": 30.6281,
        "meta_mean_anomaly": 330.0352,
        "meta_ephemeris_type": 0,
        "meta_classification_type": "U",
        "meta_norad_cat_id": 33716,
        "meta_element_set_no": 999,
        "meta_rev_at_epoch": 64997,
        "meta_bstar": 0.00020436156,
        "meta_mean_motion_dot": 5.37e-06,
        "meta_mean_motion_ddot": 0,
        "tle_line1": "1 33716U 99025DHD 25335.51890739  .00000537  00000+0  20436-3 0  9997",
        "tle_line2": "2 33716  98.8725 260.8346 0094162  30.6281 330.0352 14.32648597649972"
      },
      "geometry": {
        "type": "Point",
        "coordinates": [
          -105.45599420918825,
          41.75019336520518
        ]
      }
    },
    {
      "type": "Feature",
      "properties": {
        "norad_id": 33718,
        "name": "FENGYUN 1C DEB",
        "group": "fengyun-1c-debris",
        "lat": -74.5619182894053,
        "lon": -154.9367778218037,
        "alt_km": 871.1855347306227,
        "timestamp": "2025-12-03T04:52:29.924384+00:00",
        "meta_object_name": "FENGYUN 1C DEB",
        "meta_object_id": "1999-025DHF",
        "meta_epoch": "2025-11-30T10:50:22.656768",
        "meta_mean_motion": 14.07978595,
        "meta_eccentricity": 0.00975831,
        "meta_inclination": 99.6602,
        "meta_ra_of_asc_node": 60.2011,
        "meta_arg_of_pericenter": 354.0992,
        "meta_mean_anomaly": 5.9018,
        "meta_ephemeris_type": 0,
        "meta_classification_type": "U",
        "meta_norad_cat_id": 33718,
        "meta_element_set_no": 999,
        "meta_rev_at_epoch": 69013,
        "meta_bstar": 0.0017116252,
        "meta_mean_motion_dot": 2.989e-05,
        "meta_mean_motion_ddot": 0,
        "tle_line1": "1 33718U 99025DHF 25334.45165112  .00002989  00000+0  17116-2 0  9994",
        "tle_line2": "2 33718  99.6602  60.2011 0097583 354.0992   5.9018 14.07978595690137"
      },
      "geometry": {
        "type": "Point",
        "coordinates": [
          -154.9367778218037,
          -74.5619182894053
        ]
      }
    },
    {
      "type": "Feature",
      "properties": {
        "norad_id": 33719,
        "name": "FENGYUN 1C DEB",
        "group": "fengyun-1c-debris",
        "lat": -36.27203664647595,
        "lon": 43.70998649800883,
        "alt_km": 838.0608772864498,
        "timestamp": "2025-12-03T04:52:29.924395+00:00",
        "meta_object_name": "FENGYUN 1C DEB",
        "meta_object_id": "1999-025DHG",
        "meta_epoch": "2025-12-01T02:34:40.053792",
        "meta_mean_motion": 14.23391435,
        "meta_eccentricity": 0.00310406,
        "meta_inclination": 98.7754,
        "meta_ra_of_asc_node": 35.1121,
        "meta_arg_of_pericenter": 112.8783,
        "meta_mean_anomaly": 277.7858,
        "meta_ephemeris_type": 0,
        "meta_classification_type": "U",
        "meta_norad_cat_id": 33719,
        "meta_element_set_no": 999,
        "meta_rev_at_epoch": 91848,
        "meta_bstar": 0.001293088,
        "meta_mean_motion_dot": 2.905e-05,
        "meta_mean_motion_ddot": 0,
        "tle_line1": "1 33719U 99025DHG 25335.10740803  .00002905  00000+0  12931-2 0  9992",
        "tle_line2": "2 33719  98.7754  35.1121 0031040 112.8783 277.7858 14.23391435918485"
      },
      "geometry": {
        "type": "Point",
        "coordinates": [
          43.70998649800883,
          -36.27203664647595
        ]
      }
    },
    {
      "type": "Feature",
      "properties": {
        "norad_id": 33722,
        "name": "FENGYUN 1C DEB",
        "group": "fengyun-1c-debris",
        "lat": -63.38530558641936,
        "lon": 9.355976335601977,
        "alt_km": 718.4677718789771,
        "timestamp": "2025-12-03T04:52:29.924405+00:00",
        "meta_object_name": "FENGYUN 1C DEB",
        "meta_object_id": "1999-025DHK",
        "meta_epoch": "2025-12-02T07:12:31.694976",
        "meta_mean_motion": 14.21298555,
        "meta_eccentricity": 0.0158154,
        "meta_inclination": 98.5756,
        "meta_ra_of_asc_node": 350.9528,
        "meta_arg_of_pericenter": 282.0682,
        "meta_mean_anomaly": 76.2813,
        "meta_ephemeris_type": 0,
        "meta_classification_type": "U",
        "meta_norad_cat_id": 33722,
        "meta_element_set_no": 999,
        "meta_rev_at_epoch": 91999,
        "meta_bstar": 0.00092614,
        "meta_mean_motion_dot": 2.247e-05,
        "meta_mean_motion_ddot": 0,
        "tle_line1": "1 33722U 99025DHK 25336.30036684  .00002247  00000+0  92614-3 0  9990",
        "tle_line2": "2 33722  98.5756 350.9528 0158154 282.0682  76.2813 14.21298555919999"
      },
      "geometry": {
        "type": "Point",
        "coordinates": [
          9.355976335601977,
          -63.38530558641936
        ]
      }
    }
  ]
}